FIREFLY ALPHA R/B       
1 68128U 26046B   26078.27136572  .00028560  00000+0  40086-3 0  9990
2 68128 123.0919 247.3869 0014453 357.9669   2.1330 15.56452343  1135
GUOWANG GROUP 20 OBJECT*
1 68129U 26047A   26078.05554436 -.00000149  00000+0  21030-5 0  9995
2 68129  50.0054  32.2608 0008899 282.8383  77.1528 14.05638333   883
GUOWANG GROUP 20 OBJECT*
1 68130U 26047B   26078.05501345 -.00000148  00000+0  25318-5 0  9990
2 68130  50.0044  32.2582 0007546 277.9720  82.0329 14.05761022   878
GUOWANG GROUP 20 OBJECT*
1 68131U 26047C   26078.62349940 -.00000148  00000+0  24342-5 0  9991
2 68131  50.0037  29.9293 0008114 287.0161  72.9855 14.05810373   962
GUOWANG GROUP 20 OBJECT*
1 68132U 26047D   26078.12556338 -.00000146  00000+0  36920-5 0  9991
2 68132  50.0078  31.9684 0008434 289.4802  70.5192 14.05881519   887
GUOWANG GROUP 20 OBJECT*
1 68133U 26047E   26076.06403444 -.00000145  00000+0  46301-5 0  9995
2 68133  50.0041  40.3867 0006830 274.9069  85.1056 14.05931996   603
GUOWANG GROUP 20 OBJECT*
1 68134U 26047F   26077.84040685 -.00000143  00000+0  53437-5 0  9993
2 68134  50.0090  33.1280 0006392 285.5382  74.4818 14.06079857   849
GUOWANG GROUP 20 OBJECT*
1 68135U 26047G   26078.19590449 -.00000144  00000+0  48751-5 0  9995
2 68135  50.0116  31.6805 0007386 291.8734  68.1386 14.06047332   900
GUOWANG GROUP 20 OBJECT*
1 68136U 26047H   26077.98225515 -.00000146  00000+0  41386-5 0  9990
2 68136  50.0089  32.5476 0007509 297.2561  62.7580 14.06144171   869
GUOWANG GROUP 20 OBJECT*
1 68137U 26047J   26077.98170420 -.00000144  00000+0  48405-5 0  9992
2 68137  50.0089  32.5436 0005912 296.0035  64.0262 14.06269806   871
CZ-8A R/B               
1 68138U 26047K   26078.87634104 -.00000101  00000+0  28557-4 0  9994
2 68138  49.9540  28.5452 0044795 173.4098 186.7407 14.12228534   999
SHIYAN-30 03            
1 68139U 26048A   26078.67767566  .00002209  00000+0  21820-3 0  9998
2 68139  34.9998  84.1841 0004000 289.8785  70.1488 14.91676907   994
